KUIPER-00016            
1 63732U 25088J   25286.62999427 -.00001751  00000+0 -20024-3 0  9991
2 63732  51.9020  41.8890 0011058 298.8641  61.1211 14.79924300 25551
KUIPER-00018            
1 63733U 25088K   25286.47055772  .00007079  00000+0  10237-2 0  9992
2 63733  51.9025  31.1621 0012214 327.2779  32.7424 14.77003311 25698
KUIPER-00019            
1 63734U 25088L   25285.56298416  .00057968  00000+0  76661-2 0  9991
2 63734  51.8995  34.1119 0005622 337.1619  22.9092 14.79379516 25571
KUIPER-00020            
1 63735U 25088M   25286.57222251 -.00004269  00000+0 -53173-3 0  9990
2 63735  51.9024  33.6230 0006932 319.3814  40.6631 14.79870324 25870
KUIPER-00021            
1 63736U 25088N   25286.57058333  .00004237  00000+0  58386-3 0  9993
2 63736  51.9009  34.6324 0005609 318.6328  41.4209 14.79975988 25693
KUIPER-00023            
1 63737U 25088P   25286.56963736  .00003608  00000+0  50205-3 0  9998
2 63737  51.9014  36.1047 0011268 333.4997  26.5388 14.79920655 25978
KUIPER-00024            
1 63738U 25088Q   25286.56151075  .00003454  00000+0  48930-3 0  9995
2 63738  51.9033  23.4508 0004059 333.5138  26.5616 14.79274682 26279
KUIPER-00025            
1 63739U 25088R   25286.57326394 -.00002496  00000+0 -29829-3 0  9998
2 63739  51.9015  32.1483 0008249 314.5925  45.4364 14.79907874 26015
